CCSDS_OMM_VERS = 2.0
CREATION_DATE  = 
ORIGINATOR     = 

OBJECT_NAME    = STARLINK-36320
OBJECT_ID      = 2026-042X
CENTER_NAME    = EARTH
REF_FRAME      = TEME
TIME_SYSTEM    = UTC
MEAN_ELEMENT_THEORY = SGP/SGP4

EPOCH          = 2026-03-10T18:00:01.999296
MEAN_MOTION    = 16.00942557
ECCENTRICITY   = .0000835
INCLINATION    = 53.1603
RA_OF_ASC_NODE = 189.7909
ARG_OF_PERICENTER = 65.2338
MEAN_ANOMALY   = 17.8263

EPHEMERIS_TYPE = 0
CLASSIFICATION_TYPE = U
NORAD_CAT_ID   = 68090
ELEMENT_SET_NO = 999
REV_AT_EPOCH   = 221
BSTAR          = -.22542E-2
MEAN_MOTION_DOT = -.1248391E-1
MEAN_MOTION_DDOT = .50189E-3

CCSDS_OMM_VERS = 2.0
CREATION_DATE  = 
ORIGINATOR     = 

OBJECT_NAME    = STARLINK-36324
OBJECT_ID      = 2026-042Y
CENTER_NAME    = EARTH
REF_FRAME      = TEME
TIME_SYSTEM    = UTC
MEAN_ELEMENT_THEORY = SGP/SGP4

EPOCH          = 2026-03-10T18:00:01.999296
MEAN_MOTION    = 16.00792025
ECCENTRICITY   = .0000973
INCLINATION    = 53.1599
RA_OF_ASC_NODE = 189.7944
ARG_OF_PERICENTER = 44.1497
MEAN_ANOMALY   = 37.1555

EPHEMERIS_TYPE = 0
CLASSIFICATION_TYPE = U
NORAD_CAT_ID   = 68091
ELEMENT_SET_NO = 999
REV_AT_EPOCH   = 221
BSTAR          = -.2199E-2
MEAN_MOTION_DOT = -.1207789E-1
MEAN_MOTION_DDOT = .47181E-3

CCSDS_OMM_VERS = 2.0
CREATION_DATE  = 
ORIGINATOR     = 

OBJECT_NAME    = STARLINK-36896
OBJECT_ID      = 2026-042Z
CENTER_NAME    = EARTH
REF_FRAME      = TEME
TIME_SYSTEM    = UTC
MEAN_ELEMENT_THEORY = SGP/SGP4

EPOCH          = 2026-03-10T18:00:01.999296
MEAN_MOTION    = 16.01051234
ECCENTRICITY   = .0001068
INCLINATION    = 53.1599
RA_OF_ASC_NODE = 189.7875
ARG_OF_PERICENTER = 52.9509
MEAN_ANOMALY   = 31.7195

EPHEMERIS_TYPE = 0
CLASSIFICATION_TYPE = U
NORAD_CAT_ID   = 68092
ELEMENT_SET_NO = 999
REV_AT_EPOCH   = 222
BSTAR          = -.2221E-2
MEAN_MOTION_DOT = -.1237909E-1
MEAN_MOTION_DDOT = .49483E-3

CCSDS_OMM_VERS = 2.0
CREATION_DATE  = 
ORIGINATOR     = 

OBJECT_NAME    = STARLINK-36251
OBJECT_ID      = 2026-042AA
CENTER_NAME    = EARTH
REF_FRAME      = TEME
TIME_SYSTEM    = UTC
MEAN_ELEMENT_THEORY = SGP/SGP4

EPOCH          = 2026-03-10T18:00:01.999296
MEAN_MOTION    = 16.01294739
ECCENTRICITY   = .000082
INCLINATION    = 53.1599
RA_OF_ASC_NODE = 189.7804
ARG_OF_PERICENTER = 64.8554
MEAN_ANOMALY   = 23.2272

EPHEMERIS_TYPE = 0
CLASSIFICATION_TYPE = U
NORAD_CAT_ID   = 68093
ELEMENT_SET_NO = 999
REV_AT_EPOCH   = 221
BSTAR          = -.21947E-2
MEAN_MOTION_DOT = -.1240598E-1
MEAN_MOTION_DDOT = .49812E-3

CCSDS_OMM_VERS = 2.0
CREATION_DATE  = 
ORIGINATOR     = 

OBJECT_NAME    = STARLINK-36787
OBJECT_ID      = 2026-042AB
CENTER_NAME    = EARTH
REF_FRAME      = TEME
TIME_SYSTEM    = UTC
MEAN_ELEMENT_THEORY = SGP/SGP4

EPOCH          = 2026-03-10T18:00:01.999296
MEAN_MOTION    = 16.01577449
ECCENTRICITY   = .000097
INCLINATION    = 53.1596
RA_OF_ASC_NODE = 189.7673
ARG_OF_PERICENTER = 48.8393
MEAN_ANOMALY   = 45.3918

EPHEMERIS_TYPE = 0
CLASSIFICATION_TYPE = U
NORAD_CAT_ID   = 68094
ELEMENT_SET_NO = 999
REV_AT_EPOCH   = 221
BSTAR          = -.21087E-2
MEAN_MOTION_DOT = -.1212191E-1
MEAN_MOTION_DDOT = .47905E-3

CCSDS_OMM_VERS = 2.0
CREATION_DATE  = 
ORIGINATOR     = 

OBJECT_NAME    = STARLINK-36790
OBJECT_ID      = 2026-042AC
CENTER_NAME    = EARTH
REF_FRAME      = TEME
TIME_SYSTEM    = UTC
MEAN_ELEMENT_THEORY = SGP/SGP4

EPOCH          = 2026-03-10T18:00:01.999296
MEAN_MOTION    = 16.01139966
ECCENTRICITY   = .0000889
INCLINATION    = 53.1600
RA_OF_ASC_NODE = 189.7841
ARG_OF_PERICENTER = 74.2870
MEAN_ANOMALY   = 11.9952

EPHEMERIS_TYPE = 0
CLASSIFICATION_TYPE = U
NORAD_CAT_ID   = 68095
ELEMENT_SET_NO = 999
REV_AT_EPOCH   = 221
BSTAR          = -.21513E-2
MEAN_MOTION_DOT = -.1205635E-1
MEAN_MOTION_DDOT = .47207E-3

CCSDS_OMM_VERS = 2.0
CREATION_DATE  = 
ORIGINATOR     = 

OBJECT_NAME    = STARLINK-36328
OBJECT_ID      = 2026-042AD
CENTER_NAME    = EARTH
REF_FRAME      = TEME
TIME_SYSTEM    = UTC
MEAN_ELEMENT_THEORY = SGP/SGP4

EPOCH          = 2026-03-10T18:00:01.999296
MEAN_MOTION    = 16.01688304
ECCENTRICITY   = .0001096
INCLINATION    = 53.1599
RA_OF_ASC_NODE = 189.7628
ARG_OF_PERICENTER = 40.0369
MEAN_ANOMALY   = 56.2673

EPHEMERIS_TYPE = 0
CLASSIFICATION_TYPE = U
NORAD_CAT_ID   = 68096
ELEMENT_SET_NO = 999
REV_AT_EPOCH   = 221
BSTAR          = -.20083E-2
MEAN_MOTION_DOT = -.1162574E-1
MEAN_MOTION_DDOT = .44455E-3

CCSDS_OMM_VERS = 2.0
CREATION_DATE  = 
ORIGINATOR     = 

OBJECT_NAME    = STARLINK-36853
OBJECT_ID      = 2026-042AE
CENTER_NAME    = EARTH
REF_FRAME      = TEME
TIME_SYSTEM    = UTC
MEAN_ELEMENT_THEORY = SGP/SGP4

EPOCH          = 2026-03-10T18:00:01.999296
MEAN_MOTION    = 16.01478689
ECCENTRICITY   = .0000903
INCLINATION    = 53.1598
RA_OF_ASC_NODE = 189.7711
ARG_OF_PERICENTER = 58.2520
MEAN_ANOMALY   = 34.1102

EPHEMERIS_TYPE = 0
CLASSIFICATION_TYPE = U
NORAD_CAT_ID   = 68097
ELEMENT_SET_NO = 999
REV_AT_EPOCH   = 222
BSTAR          = -.21876E-2
MEAN_MOTION_DOT = -.1249808E-1
MEAN_MOTION_DDOT = .50589E-3

CCSDS_OMM_VERS = 2.0
CREATION_DATE  = 
ORIGINATOR     = 

OBJECT_NAME    = GLOBAL-34
OBJECT_ID      = 2026-043A
CENTER_NAME    = EARTH
REF_FRAME      = TEME
TIME_SYSTEM    = UTC
MEAN_ELEMENT_THEORY = SGP/SGP4

EPOCH          = 2026-03-10T17:07:46.861248
MEAN_MOTION    = 15.31527863
ECCENTRICITY   = .000674
INCLINATION    = 42.0218
RA_OF_ASC_NODE = 69.5878
ARG_OF_PERICENTER = 295.8316
MEAN_ANOMALY   = 64.1826

EPHEMERIS_TYPE = 0
CLASSIFICATION_TYPE = U
NORAD_CAT_ID   = 68098
ELEMENT_SET_NO = 999
REV_AT_EPOCH   = 72
BSTAR          = .49218E-3
MEAN_MOTION_DOT = .15097E-3
MEAN_MOTION_DDOT = 0

CCSDS_OMM_VERS = 2.0
CREATION_DATE  = 
ORIGINATOR     = 

OBJECT_NAME    = ELECTRON R/B
OBJECT_ID      = 2026-043B
CENTER_NAME    = EARTH
REF_FRAME      = TEME
TIME_SYSTEM    = UTC
MEAN_ELEMENT_THEORY = SGP/SGP4

EPOCH          = 2026-03-10T08:29:35.060928
MEAN_MOTION    = 16.01670709
ECCENTRICITY   = .0149943
INCLINATION    = 42.0131
RA_OF_ASC_NODE = 69.3460
ARG_OF_PERICENTER = 297.4494
MEAN_ANOMALY   = 61.1190

EPHEMERIS_TYPE = 0
CLASSIFICATION_TYPE = U
NORAD_CAT_ID   = 68099
ELEMENT_SET_NO = 999
REV_AT_EPOCH   = 69
BSTAR          = .13482E-2
MEAN_MOTION_DOT = .3474071E-1
MEAN_MOTION_DDOT = .78117E-5

CCSDS_OMM_VERS = 2.0
CREATION_DATE  = 
ORIGINATOR     = 

OBJECT_NAME    = ELECTRON KICK STAGE R/B
OBJECT_ID      = 2026-043C
CENTER_NAME    = EARTH
REF_FRAME      = TEME
TIME_SYSTEM    = UTC
MEAN_ELEMENT_THEORY = SGP/SGP4

EPOCH          = 2026-03-10T01:02:03.413184
MEAN_MOTION    = 16.00095135
ECCENTRICITY   = .01383578
INCLINATION    = 42.1191
RA_OF_ASC_NODE = 71.4890
ARG_OF_PERICENTER = 51.8651
MEAN_ANOMALY   = 309.4591

EPHEMERIS_TYPE = 0
CLASSIFICATION_TYPE = U
NORAD_CAT_ID   = 68100
ELEMENT_SET_NO = 999
REV_AT_EPOCH   = 63
BSTAR          = .19249383E-2
MEAN_MOTION_DOT = .3379654E-1
MEAN_MOTION_DDOT = .8197496E-5

CCSDS_OMM_VERS = 2.0
CREATION_DATE  = 
ORIGINATOR     = 

OBJECT_NAME    = ECHOSTAR 25
OBJECT_ID      = 2026-045A
CENTER_NAME    = EARTH
REF_FRAME      = TEME
TIME_SYSTEM    = UTC
MEAN_ELEMENT_THEORY = SGP/SGP4

EPOCH          = 2026-03-10T08:18:42.478272
MEAN_MOTION    = 3.74435030
ECCENTRICITY   = .6208313
INCLINATION    = 26.8942
RA_OF_ASC_NODE = 71.1091
ARG_OF_PERICENTER = 174.1557
MEAN_ANOMALY   = 199.6094

EPHEMERIS_TYPE = 0
CLASSIFICATION_TYPE = U
NORAD_CAT_ID   = 68126
ELEMENT_SET_NO = 999
REV_AT_EPOCH   = 1
BSTAR          = .28878E-3
MEAN_MOTION_DOT = .1692E-4
MEAN_MOTION_DDOT = 0

